ASTRA 1D                
1 23331U 94070A   17291.22115265 -.00000282  00000-0  00000+0 0  9998
2 23331   7.7447  48.3850 0003675 159.3139 186.3519  1.00270962 84432
ASTRA 1F                
1 23842U 96021A   17290.77546113  .00000116  00000-0  00000-0 0  9998
2 23842   0.0151  31.7604 0003934 188.0274 130.1583  1.00274326 20613
AMC-1 (GE-1)            
1 24315U 96054A   17290.52194443  .00000037  00000-0  00000-0 0  9990
2 24315   1.8207  84.4049 0002724 136.5279 224.0415  1.00272205 14598
AMC-2 (GE-2)            
1 24713U 97002A   17291.10478525 -.00000229  00000-0  00000+0 0  9990
2 24713   4.5614  65.2783 0004611 144.6382 129.7727  1.00272524 26590
AMC-3 (GE-3)            
1 24936U 97050A   17290.83660338 -.00000281  00000-0  00000+0 0  9992
2 24936   0.6358  91.7158 0002519 109.2338  54.7660  1.00271918 73717
NSS-5                   
1 24957U 97053A   17290.77546113  .00000089  00000-0  00000-0 0  9991
2 24957   4.0718  68.6611 0003058 142.7016 144.7640  1.00273211 73445
ASTRA 1G                
1 25071U 97076A   17290.77546113  .00000087  00000-0  00000-0 0  9992
2 25071   2.5696  77.9039 0002840 134.0172 144.8241  1.00270110 72827
NSS-806                 
1 25239U 98014A   17290.71434936 -.00000302  00000-0  00000+0 0  9994
2 25239   0.0567  21.6598 0004352 186.4564  27.9753  1.00273503 71923
ASTRA 2A                
1 25462U 98050A   17290.78104796 -.00000382  00000-0  00000-0 0  9996
2 25462   0.0496 241.0146 0002201 334.2548 205.8950  1.00272520 14612
ASTRA 1H                
1 25785U 99033A   17290.78032123  .00000123  00000-0  00000-0 0  9992
2 25785   4.0562  68.8077 0003904  73.7638 199.3824  1.00021074 19687
AMC-4 (GE-4)            
1 25954U 99060A   17290.30244631  .00000064  00000-0  00000-0 0  9991
2 25954   0.0638  89.5410 0002583 130.5289 139.9303  1.00273745 11994
ASTRA 2B                
1 26494U 00054A   17291.23089802 -.00000172  00000-0  00000+0 0  9996
2 26494   2.4605  78.5519 0004407 138.8117 233.0864  1.00272360 62514
AMC-7 (GE-7)            
1 26495U 00054B   17290.63606468  .00000065  00000-0  00000+0 0  9993
2 26495   0.0900  85.9350 0002103 151.5116 242.8709  1.00272291 62524
NSS-11 (AAP-1)          
1 26554U 00059A   17291.01682146 -.00000367  00000-0  00000+0 0  9990
2 26554   0.0550  78.5178 0001559 147.2074 275.2125  1.00272816 62442
AMC-6 (GE-6)            
1 26580U 00067A   17290.84598028 -.00000238  00000-0  00000-0 0  9991
2 26580   0.0545  75.7287 0002879 149.7799  22.6047  1.00273794 62243
ASTRA 2D                
1 26638U 00081A   17290.95350088  .00000029  00000-0  00000+0 0  9991
2 26638   3.8833  69.4452 0001707 134.9363 225.2200  1.00273454 61664
AMC-8 (GE-8)            
1 26639U 00081B   17290.43916506  .00000080  00000-0  00000-0 0  9996
2 26639   0.0606  79.0041 0002750 140.5430 185.7252  1.00274254 61600
ASTRA 2C                
1 26853U 01025A   17290.83310005  .00000024  00000-0  00000-0 0  9997
2 26853   0.6557  91.1995 0003608 115.6676 179.8716  1.00271137 13322
ASTRA 3A                
1 27400U 02015B   17290.24812785 -.00000301  00000-0  00000+0 0  9991
2 27400   4.0436  68.1743 0002533 154.8354 205.3167  1.00271598 56989
NSS-7                   
1 27414U 02019A   17290.21360039 -.00000177  00000-0  00000-0 0  9999
2 27414   2.1433  82.3631 0002557 130.7056 229.7614  1.00271439 56837
NSS-6                   
1 27603U 02057A   17290.71369017 -.00000293  00000-0  00000-0 0  9990
2 27603   0.0553  86.7042 0002418 138.5363 153.1122  1.00273112 54364
AMC-9 (GE-12)           
1 27820U 03024A   17290.57344417  .00000067  00000-0  00000+0 0  9994
2 27820   0.2361  89.6417 0019332 287.9485  87.5188  0.99853644 52607
AMC-10 (GE-10)          
1 28154U 04003A   17290.74768260  .00000065  00000-0  00000+0 0  9996
2 28154   0.0429  60.9779 0001476  94.1053   5.5212  1.00272255 50201
AMC-11 (GE-11)          
1 28252U 04017A   17291.17839678  .00000047  00000-0  00000+0 0  9990
2 28252   0.0574  68.1624 0002461 148.6445 103.2841  1.00272725 48972
AMC-15                  
1 28446U 04041A   17291.14285581 -.00000110  00000-0  00000+0 0  9999
2 28446   0.0209 100.8655 0002323 136.8118  95.5140  1.00268547 47660
AMC-16                  
1 28472U 04048A   17290.84632750 -.00000229  00000-0  00000-0 0  9997
2 28472   0.0536  66.4152 0002702 153.1672  26.6504  1.00272986 47019
NSS-10 (AMC-12)         
1 28526U 05003A   17290.70462646 -.00000273  00000-0  00000-0 0  9998
2 28526   0.0223 301.6777 0002798 280.2322  20.7175  1.00273013 21459
ASTRA 1KR               
1 29055U 06012A   17290.80163097  .00000097  00000-0  00000-0 0  9999
2 29055   0.0762 273.7563 0005053 306.3232 114.2011  1.00272433 14000
AMC-18                  
1 29644U 06054B   17290.85570164 -.00000113  00000-0  00000+0 0  9990
2 29644   0.0480  72.0410 0002362 142.3638  15.2605  1.00274429 39823
ASTRA 1L                
1 31306U 07016A   17290.80163097  .00000097  00000-0  00000-0 0  9996
2 31306   0.0895 296.2249 0003761 315.2429  82.8170  1.00273269 13341
ASTRA 4A (SIRIUS 4)     
1 32299U 07057A   17290.83938240  .00000010  00000-0  00000+0 0  9990
2 32299   0.0076 265.9623 0002792 306.7576 120.8009  1.00272245 36223
AMC-21                  
1 33275U 08038B   17290.57736169  .00000013  00000-0  00000+0 0  9995
2 33275   0.0245 102.7929 0002486 127.4406 238.9751  1.00270344 33739
ASTRA 1M                
1 33436U 08057A   17290.80163097  .00000097  00000-0  00000-0 0  9998
2 33436   0.0435  89.5265 0004308  83.8471 160.9024  1.00271172 14013
CIEL-2                  
1 33453U 08063A   17290.74282252  .00000035  00000-0  00000-0 0  9994
2 33453   0.0472  61.9821 0002992 151.0293 311.9952  1.00271969 32430
NSS-9                   
1 33749U 09008A   17290.69312424  .00000049  00000-0  00000-0 0  9996
2 33749   0.0583  68.8149 0001931 132.2489 257.9222  1.00272617 31798
SES-7 (PROTOSTAR 2)     
1 34941U 09027A   17291.01682146 -.00000367  00000-0  00000+0 0  9993
2 34941   0.0704  80.4992 0002185 173.7215 246.7976  1.00270188 30896
NSS-12                  
1 36032U 09058A   17290.76811398  .00000048  00000-0  00000+0 0  9999
2 36032   0.0586  78.1499 0002781 139.7501 142.1002  1.00273028 29214
SES-1                   
1 36516U 10016A   17290.62039247 -.00000138  00000-0  00000-0 0  9994
2 36516   0.0341  44.1857 0001888 163.2631 301.2176  1.00272923 27327
ASTRA 3B                
1 36581U 10021A   17291.04261799  .00000115  00000-0  00000+0 0  9991
2 36581   0.0631 303.7610 0003112 263.2630 218.5683  1.00270544 26929
SES-3                   
1 37748U 11035A   17291.19268391 -.00000124  00000-0  00000+0 0  9995
2 37748   0.0428  57.2728 0001862 178.0083 117.9911  1.00276247 22978
ASTRA 1N                
1 37775U 11041A   17290.80163097  .00000097  00000-0  00000-0 0  9995
2 37775   0.0548  38.4789 0000932  81.1775 214.6325  1.00271722 12806
SES-2                   
1 37809U 11049A   17290.84632750 -.00000218  00000-0  00000-0 0  9998
2 37809   0.0127 158.8599 0002080  28.2574  57.1128  1.00272713 22294
QUETZSAT 1              
1 37826U 11054A   17290.84146535 -.00000264  00000-0  00000-0 0  9995
2 37826   0.0571  68.2585 0002259 133.6061  50.5877  1.00270508 18186
SES-4                   
1 38087U 12007A   17290.69351622 -.00000191  00000-0  00000+0 0  9990
2 38087   0.0171 275.6472 0002177 294.6774  43.6828  1.00272067 20756
SES-5                   
1 38652U 12036A   17290.83938240  .00000011  00000-0  00000+0 0  9993
2 38652   0.0459 264.5448 0001540 312.5262 116.6306  1.00272722 19330
ASTRA 2F                
1 38778U 12051A   17290.84794603  .00000127  00000-0  00000+0 0  9991
2 38778   0.0563 229.4944 0004290 350.2868 140.2073  1.00271151 18565
SES-6                   
1 39172U 13026A   17291.03823891 -.00000283  00000-0  00000+0 0  9991
2 39172   0.0392  10.7262 0001842 198.3299 150.9538  1.00272179 16009
O3B FM5                 
1 39188U 13031A   17290.63658257 -.00000032  00000-0  00000-0 0  9994
2 39188   0.0582   7.2380 0008394 198.1764 154.5482  5.00115951 78816
O3B FM4                 
1 39189U 13031B   17285.13164190 -.00000027  00000-0  00000-0 0  9996
2 39189   0.0324 354.2848 0002072  62.4289 303.3109  5.00115831 78555
O3B FM2                 
1 39190U 13031C   17290.30380577 -.00000032  00000-0  00000-0 0  9998
2 39190   0.0309 346.1808 0002668  65.0362 308.8106  5.00115742 78770
O3B PFM                 
1 39191U 13031D   17290.52698283 -.00000032  00000-0  00000-0 0  9999
2 39191   0.0499   6.0463 0002846 160.3576 193.6077  5.00115932 78794
ASTRA 2E                
1 39285U 13056A   17289.84979878  .00000125  00000-0  00000+0 0  9996
2 39285   0.0752 325.7035 0002762 235.4332 158.8703  1.00274342 14850
SES-8                   
1 39460U 13071A   17290.66292130 -.00000293  00000-0  00000-0 0  9997
2 39460   0.0134 236.0257 0001411 313.5184 170.4728  1.00271008 12785
ASTRA 5B                
1 39617U 14011B   17290.78032123  .00000132  00000-0  00000-0 0  9994
2 39617   0.0428 346.3661 0003276 221.1519 131.4019  1.00274723 12941
O3B FM3                 
1 40079U 14038A   17286.44106629 -.00000029  00000-0  00000+0 0  9993
2 40079   0.0408 359.2225 0004922 203.6769 157.0827  5.00115652 59584
O3B FM7                 
1 40080U 14038B   17290.39358398 -.00000032  00000-0  00000-0 0  9991
2 40080   0.0382   0.1037 0003186 206.9903 152.8932  5.00115427 59666
O3B FM6                 
1 40081U 14038C   17290.41659500 -.00000032  00000-0  00000-0 0  9994
2 40081   0.0396 359.9287 0003682 206.9172 153.1390  5.00114759 59640
O3B FM8                 
1 40082U 14038D   17290.06134145 -.00000032  00000-0  00000-0 0  9999
2 40082   0.0362 359.0416 0002926 183.6849 177.2757  5.00115977 59749
O3B FM10                
1 40348U 14083A   17290.28331221 -.00000032  00000-0  00000-0 0  9992
2 40348   0.0463   1.9029 0002637 228.3838 129.6939  5.00115883 51711
O3B FM11                
1 40349U 14083B   17290.10528146 -.00000032  00000-0  00000-0 0  9998
2 40349   0.0477   4.1714 0002171 216.3021 139.5142  5.00115699 51718
O3B FM12                
1 40350U 14083C   17290.37218749 -.00000032  00000-0  00000-0 0  9994
2 40350   0.0466   4.2321 0002335 202.8259 152.9337  5.00115511 51727
O3B FM9                 
1 40351U 14083D   17290.54956408 -.00000032  00000-0  00000-0 0  9995
2 40351   0.0486   3.4315 0002611 217.2973 139.2557  5.00115531 51751
ASTRA 2G                
1 40364U 14089A   17290.84799091  .00000127  00000-0  00000+0 0  9994
2 40364   0.0095 339.9691 0001451 115.6459 264.4016  1.00272058 10295
SES-9                   
1 41380U 16013A   17290.62606150 -.00000369  00000-0  00000-0 0  9991
2 41380   0.0252 288.1664 0000806 244.6434 187.2109  1.00271791  5767
SES-10                  
1 42432U 17017A   17291.11137064 -.00000295  00000-0  00000+0 0  9990
2 42432   0.0145 252.3116 0002643 328.5001 139.1684  1.00270030  2053
SES-15                  
1 42709U 17026A   17291.00000000 -.00000137  00000-0  00000+0 0  9999
2 42709   0.8030 200.0660 1619360 234.0340  93.0710  1.07649611  2446
